OBJECT_NAME,OBJECT_ID,EPOCH,MEAN_MOTION,ECCENTRICITY,INCLINATION,RA_OF_ASC_NODE,ARG_OF_PERICENTER,MEAN_ANOMALY,EPHEMERIS_TYPE,CLASSIFICATION_TYPE,NORAD_CAT_ID,ELEMENT_SET_NO,REV_AT_EPOCH,BSTAR,MEAN_MOTION_DOT,MEAN_MOTION_DDOT
LEMUR-2-STARLIGHT,2025-276DY,2026-07-16T17:41:52.528128,14.99367069,.0014757,97.5234,267.3665,42.7517,317.4852,0,U,66783,999,3462,.31528E-3,.3808E-4,0
LEMUR-2-TARTIFLETTE,2025-276DZ,2026-07-16T16:03:29.668032,14.99350190,.0013921,97.5233,267.3085,51.3073,308.9394,0,U,66784,999,3461,.28548E-3,.344E-4,0
LEMUR-2-VUKASIN,2025-276EA,2026-07-16T10:31:01.980768,15.00552455,.0002856,97.5221,267.4465,51.1957,308.9522,0,U,66785,999,3453,.18768E-3,.231E-4,0
LEMUR-2-HOTSPUR-TOM,2025-276EB,2026-07-16T15:55:34.394592,14.99250046,.0013734,97.5215,267.2768,42.8928,317.3364,0,U,66786,999,3454,.24457E-3,.2931E-4,0
LEMUR-2-MYRA,2025-276EC,2026-07-16T17:41:00.218976,15.00599630,.0018677,97.5220,267.6547,49.6580,310.6272,0,U,66787,999,3464,.26311E-3,.3277E-4,0
LEMUR-2 FIKRETDENGIZ,2026-004A,2026-07-16T13:54:21.837888,14.88522289,.0010108,97.8027,195.6909,51.8777,308.3350,0,U,67363,999,2765,.18387E-3,.1656E-4,0
TWILIGHT-1 OBJECT B,2026-004B,2026-07-16T11:35:07.694016,14.87795828,.0009653,97.8076,195.5957,42.1314,318.0643,0,U,67364,999,2764,.10103E-3,.869E-5,0
LEMUR-2-MARIO-SOUSA,2026-004C,2026-07-16T13:25:05.087424,14.88734181,.000975,97.8000,195.6658,53.4528,306.7585,0,U,67365,999,2766,.24272E-3,.2215E-4,0
LEMUR-2-SONNENBLUME,2026-004E,2026-07-16T13:29:33.361152,14.88457039,.0009316,97.8001,195.6409,54.4556,305.7529,0,U,67367,999,2766,.1498E-3,.1336E-4,0
LEMUR-2-WOBLER,2026-004F,2026-07-16T11:37:01.220160,14.88703298,.0009401,97.8050,195.7164,46.4263,313.7733,0,U,67368,999,2765,.23039E-3,.2098E-4,0
LEMUR-2-GRAM-E-SUE,2026-004H,2026-07-16T13:02:37.232736,14.88592787,.0008517,97.7987,195.6391,57.3306,302.8731,0,U,67370,999,2766,.1358E-3,.1211E-4,0
LEMUR-2-KATIE,2026-004AA,2026-07-16T13:35:10.176864,14.90258470,.0003383,97.8044,196.2176,30.9861,329.1556,0,U,67387,999,2768,.2323E-3,.2199E-4,0
LEMUR-2-HCS-BAZUS,2026-004AB,2026-07-16T13:32:47.318784,14.90266628,.000286,97.8038,196.1937,30.9753,329.1633,0,U,67388,999,2768,.16075E-3,.1505E-4,0
